{
"type": "FeatureCollection",
"name": "tract_cooling_priority",
"crs": { "type": "name", "properties": { "name": "urn:ogc:def:crs:OGC:1.3:CRS84" } },
"features": [
{ "type": "Feature", "properties": { "STATEFP": "36", "COUNTYFP": "061", "TRACTCE": "001502", "GEOID": "36061001502", "NAME": "15.02", "NAMELSAD": "Census Tract 15.02", "MTFCC": "G5020", "FUNCSTAT": "S", "ALAND": 208794, "AWATER": 145770, "INTPTLAT": "+40.7055773", "INTPTLON": "-074.0026158", "TRACT_NAME": "15.02", "cooling_priority_score": 59.99, "priority_label": "High Priority", "heat_exposure_score": 71.28, "social_vulnerability_score": 33.64, "heat_contribution": 49.9, "vulnerability_contribution": 10.09 }, "geometry": { "type": "Polygon", "coordinates": [ [ [ -74.010542, 40.709154 ], [ -74.009988, 40.709806 ], [ -74.009543, 40.710327 ], [ -74.009474, 40.710413 ], [ -74.009063, 40.710887 ], [ -74.007745, 40.710221 ], [ -74.007307, 40.709999 ], [ -74.007054, 40.709872 ], [ -74.006435, 40.709557 ], [ -74.005512, 40.709093 ], [ -74.005262, 40.708921 ], [ -74.005104, 40.708747 ], [ -74.00496, 40.708569 ], [ -74.004817, 40.70839 ], [ -74.004328, 40.707824 ], [ -74.004057, 40.707437 ], [ -74.003941, 40.707228 ], [ -74.003715, 40.706957 ], [ -74.003584, 40.70679 ], [ -74.003137, 40.706248 ], [ -74.003055, 40.706151 ], [ -74.002995, 40.70608 ], [ -74.00284, 40.705887 ], [ -74.002409, 40.705471 ], [ -74.002162, 40.705361 ], [ -74.001856, 40.705047 ], [ -74.001775, 40.704963 ], [ -73.996173, 40.703364 ], [ -73.995138, 40.70298 ], [ -73.996698, 40.700877 ], [ -73.998137, 40.701525 ], [ -74.003627, 40.7033 ], [ -74.004206, 40.704283 ], [ -74.004552, 40.704838 ], [ -74.004338, 40.704965 ], [ -74.00456, 40.705105 ], [ -74.004633, 40.705159 ], [ -74.004749, 40.705232 ], [ -74.005522, 40.705791 ], [ -74.006021, 40.706142 ], [ -74.006781, 40.706724 ], [ -74.007085, 40.706945 ], [ -74.007459, 40.707219 ], [ -74.007782, 40.70742 ], [ -74.008269, 40.707722 ], [ -74.009371, 40.708614 ], [ -74.00966, 40.708756 ], [ -74.010147, 40.708976 ], [ -74.010542, 40.709154 ] ] ] } },
{ "type": "Feature", "properties": { "STATEFP": "36", "COUNTYFP": "061", "TRACTCE": "002100", "GEOID": "36061002100", "NAME": "21", "NAMELSAD": "Census Tract 21", "MTFCC": "G5020", "FUNCSTAT": "S", "ALAND": 237229, "AWATER": 0, "INTPTLAT": "+40.7143288", "INTPTLON": "-074.0100498", "TRACT_NAME": "21", "cooling_priority_score": 37.4, "priority_label": "Moderate Priority", "heat_exposure_score": 50.0, "social_vulnerability_score": 8.0, "heat_contribution": 35.0, "vulnerability_contribution": 2.4 }, "geometry": { "type": "Polygon", "coordinates": [ [ [ -74.013382, 40.714408 ], [ -74.013232, 40.715061 ], [ -74.013195, 40.715203 ], [ -74.013102, 40.715619 ], [ -74.013025, 40.715952 ], [ -74.012921, 40.716398 ], [ -74.012731, 40.717114 ], [ -74.01256, 40.717034 ], [ -74.011627, 40.716602 ], [ -74.011377, 40.716489 ], [ -74.010968, 40.716303 ], [ -74.010834, 40.716925 ], [ -74.009205, 40.716188 ], [ -74.008823, 40.716014 ], [ -74.007544, 40.715433 ], [ -74.005889, 40.714678 ], [ -74.00631, 40.714166 ], [ -74.006753, 40.713618 ], [ -74.007225, 40.713055 ], [ -74.007666, 40.712533 ], [ -74.0081, 40.711995 ], [ -74.008601, 40.711392 ], [ -74.010122, 40.712085 ], [ -74.011663, 40.712798 ], [ -74.012553, 40.713147 ], [ -74.0137, 40.713668 ], [ -74.013382, 40.714408 ] ] ] } },
{ "type": "Feature", "properties": { "STATEFP": "36", "COUNTYFP": "061", "TRACTCE": "031703", "GEOID": "36061031703", "NAME": "317.03", "NAMELSAD": "Census Tract 317.03", "MTFCC": "G5020", "FUNCSTAT": "S", "ALAND": 248049, "AWATER": 508859, "INTPTLAT": "+40.7167676", "INTPTLON": "-074.0155925", "TRACT_NAME": "317.03", "cooling_priority_score": 21.17, "priority_label": "Lower Priority", "heat_exposure_score": 18.69, "social_vulnerability_score": 26.98, "heat_contribution": 13.08, "vulnerability_contribution": 8.09 }, "geometry": { "type": "Polygon", "coordinates": [ [ [ -74.024271, 40.71394 ], [ -74.024131, 40.714843 ], [ -74.023981, 40.715839 ], [ -74.023637, 40.718069 ], [ -74.023066, 40.720414 ], [ -74.016864, 40.719611 ], [ -74.013046, 40.719086 ], [ -74.012555, 40.71907 ], [ -74.012292, 40.719039 ], [ -74.012688, 40.717298 ], [ -74.012731, 40.717114 ], [ -74.012921, 40.716398 ], [ -74.013025, 40.715952 ], [ -74.013102, 40.715619 ], [ -74.013195, 40.715203 ], [ -74.013232, 40.715061 ], [ -74.013382, 40.714408 ], [ -74.0137, 40.713668 ], [ -74.014147, 40.712213 ], [ -74.014358, 40.711006 ], [ -74.014608, 40.711108 ], [ -74.015786, 40.711569 ], [ -74.01663, 40.712117 ], [ -74.017338, 40.712251 ], [ -74.017894, 40.712356 ], [ -74.018589, 40.712201 ], [ -74.024397, 40.713111 ], [ -74.024271, 40.71394 ] ] ] } },
{ "type": "Feature", "properties": { "STATEFP": "36", "COUNTYFP": "061", "TRACTCE": "000700", "GEOID": "36061000700", "NAME": "7", "NAMELSAD": "Census Tract 7", "MTFCC": "G5020", "FUNCSTAT": "S", "ALAND": 253229, "AWATER": 246239, "INTPTLAT": "+40.6995508", "INTPTLON": "-073.9987690", "TRACT_NAME": "7", "cooling_priority_score": 39.95, "priority_label": "Moderate Priority", "heat_exposure_score": 50.92, "social_vulnerability_score": 14.34, "heat_contribution": 35.64, "vulnerability_contribution": 4.3 }, "geometry": { "type": "Polygon", "coordinates": [ [ [ -74.012508, 40.706767 ], [ -74.011947, 40.707452 ], [ -74.011703, 40.707756 ], [ -74.011248, 40.708304 ], [ -74.011012, 40.708594 ], [ -74.010846, 40.708797 ], [ -74.010542, 40.709154 ], [ -74.010147, 40.708976 ], [ -74.00966, 40.708756 ], [ -74.009371, 40.708614 ], [ -74.008269, 40.707722 ], [ -74.007782, 40.70742 ], [ -74.007459, 40.707219 ], [ -74.007085, 40.706945 ], [ -74.006781, 40.706724 ], [ -74.006021, 40.706142 ], [ -74.005522, 40.705791 ], [ -74.004749, 40.705232 ], [ -74.004633, 40.705159 ], [ -74.00456, 40.705105 ], [ -74.004338, 40.704965 ], [ -74.004552, 40.704838 ], [ -74.004206, 40.704283 ], [ -74.003627, 40.7033 ], [ -73.998137, 40.701525 ], [ -73.996698, 40.700877 ], [ -73.9975, 40.699653 ], [ -73.998032, 40.698762 ], [ -73.998376, 40.698048 ], [ -74.000454, 40.698739 ], [ -74.006066, 40.701359 ], [ -74.006981, 40.702144 ], [ -74.007531, 40.702596 ], [ -74.007727, 40.702802 ], [ -74.007814, 40.702892 ], [ -74.007851, 40.703 ], [ -74.007865, 40.70302 ], [ -74.007903, 40.703079 ], [ -74.007926, 40.703108 ], [ -74.007949, 40.70314 ], [ -74.00798, 40.703189 ], [ -74.008541, 40.703697 ], [ -74.008986, 40.704079 ], [ -74.009103, 40.704193 ], [ -74.009462, 40.704545 ], [ -74.009747, 40.704775 ], [ -74.009984, 40.705148 ], [ -74.009995, 40.705331 ], [ -74.009866, 40.705797 ], [ -74.010276, 40.705946 ], [ -74.01042, 40.705998 ], [ -74.01119, 40.706278 ], [ -74.011873, 40.706552 ], [ -74.0124, 40.706785 ], [ -74.012508, 40.706767 ] ] ] } },
{ "type": "Feature", "properties": { "STATEFP": "36", "COUNTYFP": "061", "TRACTCE": "001300", "GEOID": "36061001300", "NAME": "13", "NAMELSAD": "Census Tract 13", "MTFCC": "G5020", "FUNCSTAT": "S", "ALAND": 317216, "AWATER": 0, "INTPTLAT": "+40.7091260", "INTPTLON": "-074.0129925", "TRACT_NAME": "13", "cooling_priority_score": 22.31, "priority_label": "Lower Priority", "heat_exposure_score": 25.25, "social_vulnerability_score": 15.46, "heat_contribution": 17.67, "vulnerability_contribution": 4.64 }, "geometry": { "type": "Polygon", "coordinates": [ [ [ -74.016606, 40.704963 ], [ -74.016579, 40.705089 ], [ -74.016421, 40.705483 ], [ -74.016131, 40.706244 ], [ -74.015956, 40.70668 ], [ -74.015834, 40.706984 ], [ -74.015765, 40.707148 ], [ -74.015749, 40.707186 ], [ -74.015693, 40.707304 ], [ -74.015611, 40.707486 ], [ -74.015591, 40.707531 ], [ -74.015528, 40.707672 ], [ -74.015513, 40.707707 ], [ -74.015202, 40.708456 ], [ -74.014856, 40.709394 ], [ -74.014697, 40.709779 ], [ -74.014535, 40.710375 ], [ -74.014358, 40.711006 ], [ -74.014147, 40.712213 ], [ -74.0137, 40.713668 ], [ -74.012553, 40.713147 ], [ -74.011663, 40.712798 ], [ -74.010122, 40.712085 ], [ -74.008601, 40.711392 ], [ -74.009063, 40.710887 ], [ -74.009474, 40.710413 ], [ -74.009543, 40.710327 ], [ -74.009988, 40.709806 ], [ -74.010542, 40.709154 ], [ -74.010846, 40.708797 ], [ -74.011012, 40.708594 ], [ -74.011248, 40.708304 ], [ -74.011703, 40.707756 ], [ -74.011947, 40.707452 ], [ -74.012508, 40.706767 ], [ -74.013254, 40.705871 ], [ -74.013356, 40.705415 ], [ -74.013326, 40.705031 ], [ -74.013286, 40.704655 ], [ -74.014289, 40.704549 ], [ -74.015184, 40.704666 ], [ -74.015417, 40.704684 ], [ -74.016567, 40.704774 ], [ -74.016628, 40.704799 ], [ -74.016606, 40.704963 ] ] ] } },
{ "type": "Feature", "properties": { "STATEFP": "36", "COUNTYFP": "061", "TRACTCE": "031704", "GEOID": "36061031704", "NAME": "317.04", "NAMELSAD": "Census Tract 317.04", "MTFCC": "G5020", "FUNCSTAT": "S", "ALAND": 225043, "AWATER": 504190, "INTPTLAT": "+40.7065686", "INTPTLON": "-074.0181436", "TRACT_NAME": "317.04", "cooling_priority_score": 18.71, "priority_label": "Lower Priority", "heat_exposure_score": 21.72, "social_vulnerability_score": 11.7, "heat_contribution": 15.2, "vulnerability_contribution": 3.51 }, "geometry": { "type": "Polygon", "coordinates": [ [ [ -74.025294, 40.707262 ], [ -74.025127, 40.708343 ], [ -74.024952, 40.709474 ], [ -74.024679, 40.711269 ], [ -74.024397, 40.713111 ], [ -74.018589, 40.712201 ], [ -74.017894, 40.712356 ], [ -74.017338, 40.712251 ], [ -74.01663, 40.712117 ], [ -74.015786, 40.711569 ], [ -74.014608, 40.711108 ], [ -74.014358, 40.711006 ], [ -74.014535, 40.710375 ], [ -74.014697, 40.709779 ], [ -74.014856, 40.709394 ], [ -74.015202, 40.708456 ], [ -74.015513, 40.707707 ], [ -74.015528, 40.707672 ], [ -74.015591, 40.707531 ], [ -74.015611, 40.707486 ], [ -74.015693, 40.707304 ], [ -74.015749, 40.707186 ], [ -74.015765, 40.707148 ], [ -74.015834, 40.706984 ], [ -74.015956, 40.70668 ], [ -74.016131, 40.706244 ], [ -74.016421, 40.705483 ], [ -74.016579, 40.705089 ], [ -74.016606, 40.704963 ], [ -74.016628, 40.704799 ], [ -74.016637, 40.704633 ], [ -74.016767, 40.704583 ], [ -74.017549, 40.704281 ], [ -74.018642, 40.70415 ], [ -74.01951, 40.703854 ], [ -74.019677, 40.704148 ], [ -74.019761, 40.704157 ], [ -74.025676, 40.704764 ], [ -74.025294, 40.707262 ] ] ] } },
{ "type": "Feature", "properties": { "STATEFP": "36", "COUNTYFP": "061", "TRACTCE": "002901", "GEOID": "36061002901", "NAME": "29.01", "NAMELSAD": "Census Tract 29.01", "MTFCC": "G5020", "FUNCSTAT": "S", "ALAND": 145055, "AWATER": 0, "INTPTLAT": "+40.7133674", "INTPTLON": "-074.0018801", "TRACT_NAME": "29.01", "cooling_priority_score": 95.24, "priority_label": "Critical Priority", "heat_exposure_score": 96.31, "social_vulnerability_score": 92.77, "heat_contribution": 67.42, "vulnerability_contribution": 27.83 }, "geometry": { "type": "Polygon", "coordinates": [ [ [ -74.004489, 40.712547 ], [ -74.004412, 40.712698 ], [ -74.004291, 40.712908 ], [ -74.004059, 40.713135 ], [ -74.003603, 40.713646 ], [ -74.003094, 40.713958 ], [ -74.002598, 40.714313 ], [ -74.002427, 40.714627 ], [ -74.002115, 40.715159 ], [ -74.001683, 40.715745 ], [ -74.000818, 40.71693 ], [ -74.000274, 40.717619 ], [ -73.999956, 40.718017 ], [ -73.999313, 40.71755 ], [ -73.999449, 40.71733 ], [ -73.999932, 40.716544 ], [ -74.000138, 40.7162 ], [ -74.000578, 40.715571 ], [ -74.000789, 40.715291 ], [ -74.000528, 40.71517 ], [ -74.000455, 40.714365 ], [ -74.000746, 40.71451 ], [ -74.000968, 40.713906 ], [ -74.001569, 40.713685 ], [ -74.001257, 40.713496 ], [ -74.000932, 40.713263 ], [ -74.000891, 40.713015 ], [ -74.000873, 40.711697 ], [ -74.000872, 40.711616 ], [ -74.000855, 40.711495 ], [ -74.000819, 40.711382 ], [ -74.000763, 40.711266 ], [ -74.000693, 40.711164 ], [ -74.000607, 40.711069 ], [ -74.00051, 40.710984 ], [ -74.000776, 40.71064 ], [ -74.001136, 40.710176 ], [ -74.001235, 40.710055 ], [ -74.001281, 40.709994 ], [ -74.001419, 40.709815 ], [ -74.001672, 40.710015 ], [ -74.002523, 40.710673 ], [ -74.003311, 40.711315 ], [ -74.003537, 40.711495 ], [ -74.00363, 40.711575 ], [ -74.003731, 40.711657 ], [ -74.003971, 40.711822 ], [ -74.00401, 40.711853 ], [ -74.004106, 40.711928 ], [ -74.004229, 40.712025 ], [ -74.004417, 40.712194 ], [ -74.004464, 40.712272 ], [ -74.0045, 40.712405 ], [ -74.004489, 40.712547 ] ] ] } },
{ "type": "Feature", "properties": { "STATEFP": "36", "COUNTYFP": "061", "TRACTCE": "001501", "GEOID": "36061001501", "NAME": "15.01", "NAMELSAD": "Census Tract 15.01", "MTFCC": "G5020", "FUNCSTAT": "S", "ALAND": 270812, "AWATER": 166085, "INTPTLAT": "+40.7075653", "INTPTLON": "-074.0013991", "TRACT_NAME": "15.01", "cooling_priority_score": 79.18, "priority_label": "Critical Priority", "heat_exposure_score": 84.56, "social_vulnerability_score": 66.63, "heat_contribution": 59.19, "vulnerability_contribution": 19.99 }, "geometry": { "type": "Polygon", "coordinates": [ [ [ -74.008601, 40.711392 ], [ -74.008348, 40.711359 ], [ -74.007968, 40.711447 ], [ -74.008089, 40.711463 ], [ -74.008147, 40.711477 ], [ -74.008204, 40.711495 ], [ -74.008216, 40.711522 ], [ -74.008227, 40.711547 ], [ -74.008222, 40.711578 ], [ -74.008216, 40.711606 ], [ -74.008186, 40.711657 ], [ -74.008135, 40.711698 ], [ -74.008079, 40.711721 ], [ -74.008022, 40.711731 ], [ -74.007964, 40.711736 ], [ -74.007905, 40.711737 ], [ -74.007846, 40.711733 ], [ -74.007796, 40.711709 ], [ -74.007741, 40.71169 ], [ -74.007626, 40.711668 ], [ -74.007507, 40.711669 ], [ -74.007018, 40.711784 ], [ -74.00609, 40.712003 ], [ -74.006052, 40.712012 ], [ -74.005908, 40.712045 ], [ -74.00574, 40.712089 ], [ -74.005589, 40.71217 ], [ -74.00542, 40.712213 ], [ -74.005276, 40.712249 ], [ -74.005127, 40.712307 ], [ -74.004987, 40.712375 ], [ -74.004891, 40.712433 ], [ -74.004858, 40.712453 ], [ -74.004291, 40.712908 ], [ -74.004412, 40.712698 ], [ -74.004489, 40.712547 ], [ -74.0045, 40.712405 ], [ -74.004464, 40.712272 ], [ -74.004417, 40.712194 ], [ -74.004229, 40.712025 ], [ -74.004106, 40.711928 ], [ -74.00401, 40.711853 ], [ -74.003971, 40.711822 ], [ -74.003731, 40.711657 ], [ -74.00363, 40.711575 ], [ -74.003537, 40.711495 ], [ -74.003311, 40.711315 ], [ -74.002523, 40.710673 ], [ -74.001672, 40.710015 ], [ -74.001419, 40.709815 ], [ -74.001225, 40.709658 ], [ -74.000474, 40.709051 ], [ -74.000232, 40.708856 ], [ -74.000206, 40.708835 ], [ -73.999869, 40.70857 ], [ -73.999495, 40.708279 ], [ -73.999378, 40.708181 ], [ -73.999296, 40.708111 ], [ -73.999177, 40.708022 ], [ -73.99457, 40.704376 ], [ -73.994498, 40.704318 ], [ -73.994565, 40.704265 ], [ -73.994618, 40.704226 ], [ -73.994797, 40.704096 ], [ -73.994714, 40.703997 ], [ -73.994816, 40.703906 ], [ -73.994881, 40.703813 ], [ -73.994882, 40.703788 ], [ -73.994992, 40.703654 ], [ -73.994858, 40.703566 ], [ -73.994663, 40.703431 ], [ -73.994806, 40.703296 ], [ -73.995069, 40.703102 ], [ -73.995138, 40.70298 ], [ -73.996173, 40.703364 ], [ -74.001775, 40.704963 ], [ -74.001856, 40.705047 ], [ -74.002162, 40.705361 ], [ -74.002409, 40.705471 ], [ -74.00284, 40.705887 ], [ -74.002995, 40.70608 ], [ -74.003055, 40.706151 ], [ -74.003137, 40.706248 ], [ -74.003584, 40.70679 ], [ -74.003715, 40.706957 ], [ -74.003941, 40.707228 ], [ -74.004057, 40.707437 ], [ -74.004328, 40.707824 ], [ -74.004817, 40.70839 ], [ -74.00496, 40.708569 ], [ -74.005104, 40.708747 ], [ -74.005262, 40.708921 ], [ -74.005512, 40.709093 ], [ -74.006435, 40.709557 ], [ -74.007054, 40.709872 ], [ -74.007307, 40.709999 ], [ -74.007745, 40.710221 ], [ -74.009063, 40.710887 ], [ -74.008601, 40.711392 ] ] ] } },
{ "type": "Feature", "properties": { "STATEFP": "36", "COUNTYFP": "061", "TRACTCE": "003100", "GEOID": "36061003100", "NAME": "31", "NAMELSAD": "Census Tract 31", "MTFCC": "G5020", "FUNCSTAT": "S", "ALAND": 204969, "AWATER": 0, "INTPTLAT": "+40.7153110", "INTPTLON": "-074.0038151", "TRACT_NAME": "31", "cooling_priority_score": 77.15, "priority_label": "Critical Priority", "heat_exposure_score": 87.86, "social_vulnerability_score": 52.17, "heat_contribution": 61.5, "vulnerability_contribution": 15.65 }, "geometry": { "type": "Polygon", "coordinates": [ [ [ -74.008601, 40.711392 ], [ -74.0081, 40.711995 ], [ -74.007666, 40.712533 ], [ -74.007225, 40.713055 ], [ -74.006753, 40.713618 ], [ -74.00631, 40.714166 ], [ -74.005889, 40.714678 ], [ -74.00542, 40.715236 ], [ -74.004976, 40.71576 ], [ -74.004533, 40.71628 ], [ -74.004198, 40.71667 ], [ -74.004026, 40.716871 ], [ -74.003533, 40.717449 ], [ -74.003046, 40.718026 ], [ -74.002538, 40.718627 ], [ -74.002091, 40.719153 ], [ -74.001884, 40.719398 ], [ -74.001273, 40.718961 ], [ -74.000532, 40.71843 ], [ -73.999956, 40.718017 ], [ -74.000274, 40.717619 ], [ -74.000818, 40.71693 ], [ -74.001683, 40.715745 ], [ -74.002115, 40.715159 ], [ -74.002427, 40.714627 ], [ -74.002598, 40.714313 ], [ -74.003094, 40.713958 ], [ -74.003603, 40.713646 ], [ -74.004059, 40.713135 ], [ -74.004291, 40.712908 ], [ -74.004858, 40.712453 ], [ -74.004891, 40.712433 ], [ -74.004987, 40.712375 ], [ -74.005127, 40.712307 ], [ -74.005276, 40.712249 ], [ -74.00542, 40.712213 ], [ -74.005589, 40.71217 ], [ -74.00574, 40.712089 ], [ -74.005908, 40.712045 ], [ -74.006052, 40.712012 ], [ -74.00609, 40.712003 ], [ -74.007018, 40.711784 ], [ -74.007507, 40.711669 ], [ -74.007626, 40.711668 ], [ -74.007741, 40.71169 ], [ -74.007796, 40.711709 ], [ -74.007846, 40.711733 ], [ -74.007905, 40.711737 ], [ -74.007964, 40.711736 ], [ -74.008022, 40.711731 ], [ -74.008079, 40.711721 ], [ -74.008135, 40.711698 ], [ -74.008186, 40.711657 ], [ -74.008216, 40.711606 ], [ -74.008222, 40.711578 ], [ -74.008227, 40.711547 ], [ -74.008216, 40.711522 ], [ -74.008204, 40.711495 ], [ -74.008147, 40.711477 ], [ -74.008089, 40.711463 ], [ -74.007968, 40.711447 ], [ -74.008348, 40.711359 ], [ -74.008601, 40.711392 ] ] ] } },
{ "type": "Feature", "properties": { "STATEFP": "36", "COUNTYFP": "061", "TRACTCE": "003300", "GEOID": "36061003300", "NAME": "33", "NAMELSAD": "Census Tract 33", "MTFCC": "G5020", "FUNCSTAT": "S", "ALAND": 341677, "AWATER": 0, "INTPTLAT": "+40.7188624", "INTPTLON": "-074.0061463", "TRACT_NAME": "33", "cooling_priority_score": 60.57, "priority_label": "High Priority", "heat_exposure_score": 80.54, "social_vulnerability_score": 13.98, "heat_contribution": 56.38, "vulnerability_contribution": 4.19 }, "geometry": { "type": "Polygon", "coordinates": [ [ [ -74.009115, 40.71692 ], [ -74.009064, 40.717265 ], [ -74.009, 40.717598 ], [ -74.008943, 40.717925 ], [ -74.008883, 40.718267 ], [ -74.008819, 40.718642 ], [ -74.008747, 40.719029 ], [ -74.008699, 40.719296 ], [ -74.008584, 40.719952 ], [ -74.00847, 40.72061 ], [ -74.008346, 40.721322 ], [ -74.008233, 40.721966 ], [ -74.008117, 40.722627 ], [ -74.007985, 40.72328 ], [ -74.007938, 40.723516 ], [ -74.007912, 40.7237 ], [ -74.007629, 40.723497 ], [ -74.006298, 40.72255 ], [ -74.005913, 40.722253 ], [ -74.00531, 40.721824 ], [ -74.005227, 40.721744 ], [ -74.004635, 40.721354 ], [ -74.003929, 40.720854 ], [ -74.003512, 40.720557 ], [ -74.003259, 40.720377 ], [ -74.0026, 40.719903 ], [ -74.001884, 40.719398 ], [ -74.002091, 40.719153 ], [ -74.002538, 40.718627 ], [ -74.003046, 40.718026 ], [ -74.003533, 40.717449 ], [ -74.004026, 40.716871 ], [ -74.004198, 40.71667 ], [ -74.004533, 40.71628 ], [ -74.004976, 40.71576 ], [ -74.00542, 40.715236 ], [ -74.005889, 40.714678 ], [ -74.007544, 40.715433 ], [ -74.008823, 40.716014 ], [ -74.009205, 40.716188 ], [ -74.009115, 40.71692 ] ] ] } },
{ "type": "Feature", "properties": { "STATEFP": "36", "COUNTYFP": "061", "TRACTCE": "003900", "GEOID": "36061003900", "NAME": "39", "NAMELSAD": "Census Tract 39", "MTFCC": "G5020", "FUNCSTAT": "S", "ALAND": 331072, "AWATER": 466393, "INTPTLAT": "+40.7204979", "INTPTLON": "-074.0122661", "TRACT_NAME": "39", "cooling_priority_score": 47.6, "priority_label": "Moderate Priority", "heat_exposure_score": 48.19, "social_vulnerability_score": 46.24, "heat_contribution": 33.73, "vulnerability_contribution": 13.87 }, "geometry": { "type": "Polygon", "coordinates": [ [ [ -74.023019, 40.720611 ], [ -74.022699, 40.721923 ], [ -74.022289, 40.72361 ], [ -74.022003, 40.724783 ], [ -74.02189, 40.725251 ], [ -74.021862, 40.725363 ], [ -74.021832, 40.725487 ], [ -74.01599, 40.724766 ], [ -74.011978, 40.724333 ], [ -74.011732, 40.724308 ], [ -74.011439, 40.724284 ], [ -74.011235, 40.724266 ], [ -74.011056, 40.725148 ], [ -74.010943, 40.725662 ], [ -74.010923, 40.725794 ], [ -74.010916, 40.725832 ], [ -74.010812, 40.72579 ], [ -74.010041, 40.725206 ], [ -74.009644, 40.724929 ], [ -74.009317, 40.724702 ], [ -74.008644, 40.724222 ], [ -74.008302, 40.723977 ], [ -74.007912, 40.7237 ], [ -74.007938, 40.723516 ], [ -74.007985, 40.72328 ], [ -74.008117, 40.722627 ], [ -74.008233, 40.721966 ], [ -74.008346, 40.721322 ], [ -74.00847, 40.72061 ], [ -74.008584, 40.719952 ], [ -74.008699, 40.719296 ], [ -74.008747, 40.719029 ], [ -74.008819, 40.718642 ], [ -74.008883, 40.718267 ], [ -74.008943, 40.717925 ], [ -74.009, 40.717598 ], [ -74.009064, 40.717265 ], [ -74.009115, 40.71692 ], [ -74.009205, 40.716188 ], [ -74.010834, 40.716925 ], [ -74.010968, 40.716303 ], [ -74.011377, 40.716489 ], [ -74.011627, 40.716602 ], [ -74.01256, 40.717034 ], [ -74.012731, 40.717114 ], [ -74.012688, 40.717298 ], [ -74.012292, 40.719039 ], [ -74.012555, 40.71907 ], [ -74.013046, 40.719086 ], [ -74.016864, 40.719611 ], [ -74.023066, 40.720414 ], [ -74.023019, 40.720611 ] ] ] } }
]
}
